<?xml version="1.0" encoding="UTF-8"?>
<gpx version="1.1" creator="fingal10k-map-trace" xmlns="http://www.topografix.com/GPX/1/1">
  <metadata>
    <name>Fingal 10K 2026 - Irish Life Dublin Race Series</name>
    <desc>Course traced from the official 2026 race map PDF (Swords: Balheary Road, Harlockstown Lane, Magillstown Road, Balheary Road, finish R125). Georeferenced approximation, positions accurate to roughly 50-100 m.</desc>
  </metadata>
  <wpt lat="53.466646" lon="-6.220435"><name>Start</name><desc>Start – Balheary Road</desc></wpt>
  <wpt lat="53.465270" lon="-6.219211"><name>Finish</name><desc>Finish – R125</desc></wpt>
  <wpt lat="53.473651" lon="-6.226155"><name>km 1</name><desc>1 km</desc></wpt>
  <wpt lat="53.480215" lon="-6.235376"><name>km 2</name><desc>2 km</desc></wpt>
  <wpt lat="53.486661" lon="-6.240105"><name>km 3</name><desc>3 km</desc></wpt>
  <wpt lat="53.494773" lon="-6.246316"><name>km 4</name><desc>4 km</desc></wpt>
  <wpt lat="53.503246" lon="-6.241518"><name>km 5</name><desc>5 km</desc></wpt>
  <wpt lat="53.499464" lon="-6.230681"><name>km 6</name><desc>6 km</desc></wpt>
  <wpt lat="53.490894" lon="-6.229224"><name>km 7</name><desc>7 km</desc></wpt>
  <wpt lat="53.482094" lon="-6.226209"><name>km 8</name><desc>8 km</desc></wpt>
  <wpt lat="53.473374" lon="-6.222645"><name>km 9</name><desc>9 km</desc></wpt>
  <trk>
    <name>Fingal 10K 2026</name>
    <type>running</type>
    <trkseg>
      <trkpt lat="53.466646" lon="-6.220435"></trkpt>
      <trkpt lat="53.466691" lon="-6.220438"></trkpt>
      <trkpt lat="53.466809" lon="-6.220446"></trkpt>
      <trkpt lat="53.466979" lon="-6.220458"></trkpt>
      <trkpt lat="53.467179" lon="-6.220472"></trkpt>
      <trkpt lat="53.467385" lon="-6.220487"></trkpt>
      <trkpt lat="53.467575" lon="-6.220501"></trkpt>
      <trkpt lat="53.467727" lon="-6.220511"></trkpt>
      <trkpt lat="53.467819" lon="-6.220518"></trkpt>
      <trkpt lat="53.467866" lon="-6.220524"></trkpt>
      <trkpt lat="53.467910" lon="-6.220537"></trkpt>
      <trkpt lat="53.467951" lon="-6.220555"></trkpt>
      <trkpt lat="53.467991" lon="-6.220579"></trkpt>
      <trkpt lat="53.468030" lon="-6.220608"></trkpt>
      <trkpt lat="53.468069" lon="-6.220644"></trkpt>
      <trkpt lat="53.468110" lon="-6.220685"></trkpt>
      <trkpt lat="53.468153" lon="-6.220731"></trkpt>
      <trkpt lat="53.468181" lon="-6.220763"></trkpt>
      <trkpt lat="53.468206" lon="-6.220796"></trkpt>
      <trkpt lat="53.468231" lon="-6.220828"></trkpt>
      <trkpt lat="53.468257" lon="-6.220859"></trkpt>
      <trkpt lat="53.468286" lon="-6.220887"></trkpt>
      <trkpt lat="53.468318" lon="-6.220912"></trkpt>
      <trkpt lat="53.468355" lon="-6.220931"></trkpt>
      <trkpt lat="53.468399" lon="-6.220944"></trkpt>
      <trkpt lat="53.468707" lon="-6.221008"></trkpt>
      <trkpt lat="53.469049" lon="-6.221082"></trkpt>
      <trkpt lat="53.469405" lon="-6.221162"></trkpt>
      <trkpt lat="53.469756" lon="-6.221242"></trkpt>
      <trkpt lat="53.470082" lon="-6.221318"></trkpt>
      <trkpt lat="53.470366" lon="-6.221384"></trkpt>
      <trkpt lat="53.470586" lon="-6.221438"></trkpt>
      <trkpt lat="53.470725" lon="-6.221473"></trkpt>
      <trkpt lat="53.470969" lon="-6.221581"></trkpt>
      <trkpt lat="53.471184" lon="-6.221753"></trkpt>
      <trkpt lat="53.471378" lon="-6.221967"></trkpt>
      <trkpt lat="53.471556" lon="-6.222205"></trkpt>
      <trkpt lat="53.471723" lon="-6.222446"></trkpt>
      <trkpt lat="53.471887" lon="-6.222669"></trkpt>
      <trkpt lat="53.472052" lon="-6.222854"></trkpt>
      <trkpt lat="53.472226" lon="-6.222981"></trkpt>
      <trkpt lat="53.472314" lon="-6.223026"></trkpt>
      <trkpt lat="53.472405" lon="-6.223070"></trkpt>
      <trkpt lat="53.472501" lon="-6.223107"></trkpt>
      <trkpt lat="53.472606" lon="-6.223132"></trkpt>
      <trkpt lat="53.472723" lon="-6.223139"></trkpt>
      <trkpt lat="53.472854" lon="-6.223125"></trkpt>
      <trkpt lat="53.473004" lon="-6.223083"></trkpt>
      <trkpt lat="53.473175" lon="-6.223010"></trkpt>
      <trkpt lat="53.473240" lon="-6.222990"></trkpt>
      <trkpt lat="53.473293" lon="-6.222986"></trkpt>
      <trkpt lat="53.473334" lon="-6.222997"></trkpt>
      <trkpt lat="53.473365" lon="-6.223023"></trkpt>
      <trkpt lat="53.473388" lon="-6.223062"></trkpt>
      <trkpt lat="53.473404" lon="-6.223114"></trkpt>
      <trkpt lat="53.473415" lon="-6.223177"></trkpt>
      <trkpt lat="53.473423" lon="-6.223253"></trkpt>
      <trkpt lat="53.473433" lon="-6.223383"></trkpt>
      <trkpt lat="53.473455" lon="-6.223662"></trkpt>
      <trkpt lat="53.473484" lon="-6.224044"></trkpt>
      <trkpt lat="53.473518" lon="-6.224483"></trkpt>
      <trkpt lat="53.473553" lon="-6.224930"></trkpt>
      <trkpt lat="53.473585" lon="-6.225341"></trkpt>
      <trkpt lat="53.473610" lon="-6.225668"></trkpt>
      <trkpt lat="53.473625" lon="-6.225864"></trkpt>
      <trkpt lat="53.473651" lon="-6.226155"></trkpt>
      <trkpt lat="53.473688" lon="-6.226467"></trkpt>
      <trkpt lat="53.473736" lon="-6.226794"></trkpt>
      <trkpt lat="53.473794" lon="-6.227131"></trkpt>
      <trkpt lat="53.473862" lon="-6.227473"></trkpt>
      <trkpt lat="53.473938" lon="-6.227814"></trkpt>
      <trkpt lat="53.474022" lon="-6.228150"></trkpt>
      <trkpt lat="53.474113" lon="-6.228474"></trkpt>
      <trkpt lat="53.474207" lon="-6.228782"></trkpt>
      <trkpt lat="53.474300" lon="-6.229073"></trkpt>
      <trkpt lat="53.474393" lon="-6.229345"></trkpt>
      <trkpt lat="53.474488" lon="-6.229595"></trkpt>
      <trkpt lat="53.474585" lon="-6.229824"></trkpt>
      <trkpt lat="53.474685" lon="-6.230029"></trkpt>
      <trkpt lat="53.474789" lon="-6.230209"></trkpt>
      <trkpt lat="53.474897" lon="-6.230362"></trkpt>
      <trkpt lat="53.475004" lon="-6.230523"></trkpt>
      <trkpt lat="53.475105" lon="-6.230717"></trkpt>
      <trkpt lat="53.475198" lon="-6.230935"></trkpt>
      <trkpt lat="53.475285" lon="-6.231167"></trkpt>
      <trkpt lat="53.475365" lon="-6.231403"></trkpt>
      <trkpt lat="53.475438" lon="-6.231631"></trkpt>
      <trkpt lat="53.475504" lon="-6.231843"></trkpt>
      <trkpt lat="53.475562" lon="-6.232028"></trkpt>
      <trkpt lat="53.475624" lon="-6.232181"></trkpt>
      <trkpt lat="53.475698" lon="-6.232308"></trkpt>
      <trkpt lat="53.475780" lon="-6.232412"></trkpt>
      <trkpt lat="53.475868" lon="-6.232497"></trkpt>
      <trkpt lat="53.475959" lon="-6.232567"></trkpt>
      <trkpt lat="53.476051" lon="-6.232625"></trkpt>
      <trkpt lat="53.476142" lon="-6.232676"></trkpt>
      <trkpt lat="53.476228" lon="-6.232724"></trkpt>
      <trkpt lat="53.476444" lon="-6.232855"></trkpt>
      <trkpt lat="53.476795" lon="-6.233083"></trkpt>
      <trkpt lat="53.477255" lon="-6.233387"></trkpt>
      <trkpt lat="53.477795" lon="-6.233748"></trkpt>
      <trkpt lat="53.478389" lon="-6.234147"></trkpt>
      <trkpt lat="53.479008" lon="-6.234564"></trkpt>
      <trkpt lat="53.479626" lon="-6.234980"></trkpt>
      <trkpt lat="53.480215" lon="-6.235376"></trkpt>
      <trkpt lat="53.480428" lon="-6.235516"></trkpt>
      <trkpt lat="53.480624" lon="-6.235638"></trkpt>
      <trkpt lat="53.480803" lon="-6.235745"></trkpt>
      <trkpt lat="53.480967" lon="-6.235841"></trkpt>
      <trkpt lat="53.481117" lon="-6.235929"></trkpt>
      <trkpt lat="53.481254" lon="-6.236012"></trkpt>
      <trkpt lat="53.481381" lon="-6.236093"></trkpt>
      <trkpt lat="53.481498" lon="-6.236176"></trkpt>
      <trkpt lat="53.481779" lon="-6.236364"></trkpt>
      <trkpt lat="53.482069" lon="-6.236678"></trkpt>
      <trkpt lat="53.482323" lon="-6.237026"></trkpt>
      <trkpt lat="53.482541" lon="-6.237384"></trkpt>
      <trkpt lat="53.482722" lon="-6.237729"></trkpt>
      <trkpt lat="53.482863" lon="-6.238038"></trkpt>
      <trkpt lat="53.482966" lon="-6.238288"></trkpt>
      <trkpt lat="53.483028" lon="-6.238454"></trkpt>
      <trkpt lat="53.483049" lon="-6.238515"></trkpt>
      <trkpt lat="53.483300" lon="-6.239547"></trkpt>
      <trkpt lat="53.483870" lon="-6.241032"></trkpt>
      <trkpt lat="53.484532" lon="-6.242424"></trkpt>
      <trkpt lat="53.485762" lon="-6.241102"></trkpt>
      <trkpt lat="53.486301" lon="-6.240382"></trkpt>
      <trkpt lat="53.486309" lon="-6.240366"></trkpt>
      <trkpt lat="53.486335" lon="-6.240326"></trkpt>
      <trkpt lat="53.486376" lon="-6.240271"></trkpt>
      <trkpt lat="53.486430" lon="-6.240211"></trkpt>
      <trkpt lat="53.486497" lon="-6.240157"></trkpt>
      <trkpt lat="53.486574" lon="-6.240118"></trkpt>
      <trkpt lat="53.486661" lon="-6.240105"></trkpt>
      <trkpt lat="53.486756" lon="-6.240127"></trkpt>
      <trkpt lat="53.486890" lon="-6.240186"></trkpt>
      <trkpt lat="53.487079" lon="-6.240270"></trkpt>
      <trkpt lat="53.487300" lon="-6.240369"></trkpt>
      <trkpt lat="53.487532" lon="-6.240472"></trkpt>
      <trkpt lat="53.487751" lon="-6.240570"></trkpt>
      <trkpt lat="53.487935" lon="-6.240652"></trkpt>
      <trkpt lat="53.488063" lon="-6.240709"></trkpt>
      <trkpt lat="53.488110" lon="-6.240730"></trkpt>
      <trkpt lat="53.489395" lon="-6.242030"></trkpt>
      <trkpt lat="53.491702" lon="-6.244002"></trkpt>
      <trkpt lat="53.491876" lon="-6.244150"></trkpt>
      <trkpt lat="53.492099" lon="-6.244339"></trkpt>
      <trkpt lat="53.492354" lon="-6.244555"></trkpt>
      <trkpt lat="53.492624" lon="-6.244782"></trkpt>
      <trkpt lat="53.492892" lon="-6.245007"></trkpt>
      <trkpt lat="53.493143" lon="-6.245213"></trkpt>
      <trkpt lat="53.493359" lon="-6.245385"></trkpt>
      <trkpt lat="53.493525" lon="-6.245510"></trkpt>
      <trkpt lat="53.493676" lon="-6.245617"></trkpt>
      <trkpt lat="53.493853" lon="-6.245739"></trkpt>
      <trkpt lat="53.494046" lon="-6.245870"></trkpt>
      <trkpt lat="53.494245" lon="-6.246000"></trkpt>
      <trkpt lat="53.494439" lon="-6.246124"></trkpt>
      <trkpt lat="53.494618" lon="-6.246231"></trkpt>
      <trkpt lat="53.494773" lon="-6.246316"></trkpt>
      <trkpt lat="53.494892" lon="-6.246369"></trkpt>
      <trkpt lat="53.495020" lon="-6.246190"></trkpt>
      <trkpt lat="53.495188" lon="-6.245991"></trkpt>
      <trkpt lat="53.495382" lon="-6.245781"></trkpt>
      <trkpt lat="53.495589" lon="-6.245571"></trkpt>
      <trkpt lat="53.495797" lon="-6.245371"></trkpt>
      <trkpt lat="53.495991" lon="-6.245191"></trkpt>
      <trkpt lat="53.496159" lon="-6.245041"></trkpt>
      <trkpt lat="53.496287" lon="-6.244930"></trkpt>
      <trkpt lat="53.496493" lon="-6.244786"></trkpt>
      <trkpt lat="53.496833" lon="-6.244577"></trkpt>
      <trkpt lat="53.497265" lon="-6.244327"></trkpt>
      <trkpt lat="53.497748" lon="-6.244057"></trkpt>
      <trkpt lat="53.498240" lon="-6.243791"></trkpt>
      <trkpt lat="53.498700" lon="-6.243550"></trkpt>
      <trkpt lat="53.499085" lon="-6.243358"></trkpt>
      <trkpt lat="53.499354" lon="-6.243236"></trkpt>
      <trkpt lat="53.499565" lon="-6.243153"></trkpt>
      <trkpt lat="53.499800" lon="-6.243065"></trkpt>
      <trkpt lat="53.500047" lon="-6.242976"></trkpt>
      <trkpt lat="53.500299" lon="-6.242891"></trkpt>
      <trkpt lat="53.500544" lon="-6.242816"></trkpt>
      <trkpt lat="53.500774" lon="-6.242756"></trkpt>
      <trkpt lat="53.500979" lon="-6.242717"></trkpt>
      <trkpt lat="53.501150" lon="-6.242702"></trkpt>
      <trkpt lat="53.501362" lon="-6.242649"></trkpt>
      <trkpt lat="53.501674" lon="-6.242505"></trkpt>
      <trkpt lat="53.502053" lon="-6.242295"></trkpt>
      <trkpt lat="53.502464" lon="-6.242044"></trkpt>
      <trkpt lat="53.502873" lon="-6.241777"></trkpt>
      <trkpt lat="53.503246" lon="-6.241518"></trkpt>
      <trkpt lat="53.503548" lon="-6.241292"></trkpt>
      <trkpt lat="53.503747" lon="-6.241125"></trkpt>
      <trkpt lat="53.503616" lon="-6.240730"></trkpt>
      <trkpt lat="53.503392" lon="-6.240032"></trkpt>
      <trkpt lat="53.503107" lon="-6.239135"></trkpt>
      <trkpt lat="53.502792" lon="-6.238142"></trkpt>
      <trkpt lat="53.502482" lon="-6.237157"></trkpt>
      <trkpt lat="53.502207" lon="-6.236282"></trkpt>
      <trkpt lat="53.502001" lon="-6.235621"></trkpt>
      <trkpt lat="53.501896" lon="-6.235277"></trkpt>
      <trkpt lat="53.501782" lon="-6.234977"></trkpt>
      <trkpt lat="53.501669" lon="-6.234824"></trkpt>
      <trkpt lat="53.501557" lon="-6.234766"></trkpt>
      <trkpt lat="53.501447" lon="-6.234749"></trkpt>
      <trkpt lat="53.501339" lon="-6.234722"></trkpt>
      <trkpt lat="53.501235" lon="-6.234631"></trkpt>
      <trkpt lat="53.501135" lon="-6.234424"></trkpt>
      <trkpt lat="53.501039" lon="-6.234048"></trkpt>
      <trkpt lat="53.500963" lon="-6.233657"></trkpt>
      <trkpt lat="53.500877" lon="-6.233209"></trkpt>
      <trkpt lat="53.500784" lon="-6.232733"></trkpt>
      <trkpt lat="53.500692" lon="-6.232255"></trkpt>
      <trkpt lat="53.500606" lon="-6.231805"></trkpt>
      <trkpt lat="53.500530" lon="-6.231409"></trkpt>
      <trkpt lat="53.500470" lon="-6.231095"></trkpt>
      <trkpt lat="53.500432" lon="-6.230892"></trkpt>
      <trkpt lat="53.500402" lon="-6.230764"></trkpt>
      <trkpt lat="53.500366" lon="-6.230659"></trkpt>
      <trkpt lat="53.500327" lon="-6.230574"></trkpt>
      <trkpt lat="53.500288" lon="-6.230509"></trkpt>
      <trkpt lat="53.500253" lon="-6.230461"></trkpt>
      <trkpt lat="53.500224" lon="-6.230428"></trkpt>
      <trkpt lat="53.500204" lon="-6.230410"></trkpt>
      <trkpt lat="53.500197" lon="-6.230404"></trkpt>
      <trkpt lat="53.499464" lon="-6.230681"></trkpt>
      <trkpt lat="53.497241" lon="-6.232353"></trkpt>
      <trkpt lat="53.497228" lon="-6.232356"></trkpt>
      <trkpt lat="53.497192" lon="-6.232358"></trkpt>
      <trkpt lat="53.497133" lon="-6.232356"></trkpt>
      <trkpt lat="53.497052" lon="-6.232342"></trkpt>
      <trkpt lat="53.496950" lon="-6.232310"></trkpt>
      <trkpt lat="53.496827" lon="-6.232255"></trkpt>
      <trkpt lat="53.496684" lon="-6.232171"></trkpt>
      <trkpt lat="53.496522" lon="-6.232052"></trkpt>
      <trkpt lat="53.496336" lon="-6.231909"></trkpt>
      <trkpt lat="53.496124" lon="-6.231762"></trkpt>
      <trkpt lat="53.495893" lon="-6.231616"></trkpt>
      <trkpt lat="53.495652" lon="-6.231475"></trkpt>
      <trkpt lat="53.495409" lon="-6.231343"></trkpt>
      <trkpt lat="53.495170" lon="-6.231226"></trkpt>
      <trkpt lat="53.494945" lon="-6.231128"></trkpt>
      <trkpt lat="53.494740" lon="-6.231054"></trkpt>
      <trkpt lat="53.494551" lon="-6.230992"></trkpt>
      <trkpt lat="53.494366" lon="-6.230929"></trkpt>
      <trkpt lat="53.494190" lon="-6.230864"></trkpt>
      <trkpt lat="53.494024" lon="-6.230799"></trkpt>
      <trkpt lat="53.493872" lon="-6.230734"></trkpt>
      <trkpt lat="53.493736" lon="-6.230669"></trkpt>
      <trkpt lat="53.493620" lon="-6.230605"></trkpt>
      <trkpt lat="53.493525" lon="-6.230543"></trkpt>
      <trkpt lat="53.493413" lon="-6.230473"></trkpt>
      <trkpt lat="53.493255" lon="-6.230386"></trkpt>
      <trkpt lat="53.493063" lon="-6.230290"></trkpt>
      <trkpt lat="53.492855" lon="-6.230190"></trkpt>
      <trkpt lat="53.492644" lon="-6.230092"></trkpt>
      <trkpt lat="53.492445" lon="-6.230002"></trkpt>
      <trkpt lat="53.492273" lon="-6.229926"></trkpt>
      <trkpt lat="53.492143" lon="-6.229871"></trkpt>
      <trkpt lat="53.492017" lon="-6.229813"></trkpt>
      <trkpt lat="53.491852" lon="-6.229732"></trkpt>
      <trkpt lat="53.491662" lon="-6.229635"></trkpt>
      <trkpt lat="53.491458" lon="-6.229528"></trkpt>
      <trkpt lat="53.491254" lon="-6.229420"></trkpt>
      <trkpt lat="53.491062" lon="-6.229316"></trkpt>
      <trkpt lat="53.490894" lon="-6.229224"></trkpt>
      <trkpt lat="53.490762" lon="-6.229151"></trkpt>
      <trkpt lat="53.490634" lon="-6.229084"></trkpt>
      <trkpt lat="53.490473" lon="-6.229005"></trkpt>
      <trkpt lat="53.490284" lon="-6.228920"></trkpt>
      <trkpt lat="53.490073" lon="-6.228832"></trkpt>
      <trkpt lat="53.489848" lon="-6.228747"></trkpt>
      <trkpt lat="53.489614" lon="-6.228668"></trkpt>
      <trkpt lat="53.489378" lon="-6.228601"></trkpt>
      <trkpt lat="53.489146" lon="-6.228548"></trkpt>
      <trkpt lat="53.488922" lon="-6.228510"></trkpt>
      <trkpt lat="53.488706" lon="-6.228482"></trkpt>
      <trkpt lat="53.488500" lon="-6.228456"></trkpt>
      <trkpt lat="53.488304" lon="-6.228429"></trkpt>
      <trkpt lat="53.488119" lon="-6.228394"></trkpt>
      <trkpt lat="53.487946" lon="-6.228348"></trkpt>
      <trkpt lat="53.487787" lon="-6.228285"></trkpt>
      <trkpt lat="53.487641" lon="-6.228200"></trkpt>
      <trkpt lat="53.487517" lon="-6.228114"></trkpt>
      <trkpt lat="53.487351" lon="-6.228003"></trkpt>
      <trkpt lat="53.487159" lon="-6.227876"></trkpt>
      <trkpt lat="53.486953" lon="-6.227742"></trkpt>
      <trkpt lat="53.486749" lon="-6.227609"></trkpt>
      <trkpt lat="53.486560" lon="-6.227488"></trkpt>
      <trkpt lat="53.486402" lon="-6.227388"></trkpt>
      <trkpt lat="53.486287" lon="-6.227318"></trkpt>
      <trkpt lat="53.486200" lon="-6.227267"></trkpt>
      <trkpt lat="53.486115" lon="-6.227221"></trkpt>
      <trkpt lat="53.486030" lon="-6.227181"></trkpt>
      <trkpt lat="53.485945" lon="-6.227150"></trkpt>
      <trkpt lat="53.485859" lon="-6.227130"></trkpt>
      <trkpt lat="53.485770" lon="-6.227122"></trkpt>
      <trkpt lat="53.485678" lon="-6.227130"></trkpt>
      <trkpt lat="53.485582" lon="-6.227156"></trkpt>
      <trkpt lat="53.485488" lon="-6.227188"></trkpt>
      <trkpt lat="53.485401" lon="-6.227215"></trkpt>
      <trkpt lat="53.485318" lon="-6.227234"></trkpt>
      <trkpt lat="53.485233" lon="-6.227246"></trkpt>
      <trkpt lat="53.485145" lon="-6.227247"></trkpt>
      <trkpt lat="53.485050" lon="-6.227237"></trkpt>
      <trkpt lat="53.484943" lon="-6.227215"></trkpt>
      <trkpt lat="53.484822" lon="-6.227179"></trkpt>
      <trkpt lat="53.484668" lon="-6.227131"></trkpt>
      <trkpt lat="53.484471" lon="-6.227075"></trkpt>
      <trkpt lat="53.484245" lon="-6.227012"></trkpt>
      <trkpt lat="53.483999" lon="-6.226944"></trkpt>
      <trkpt lat="53.483748" lon="-6.226871"></trkpt>
      <trkpt lat="53.483501" lon="-6.226795"></trkpt>
      <trkpt lat="53.483272" lon="-6.226716"></trkpt>
      <trkpt lat="53.483072" lon="-6.226637"></trkpt>
      <trkpt lat="53.482720" lon="-6.226483"></trkpt>
      <trkpt lat="53.482094" lon="-6.226209"></trkpt>
      <trkpt lat="53.481293" lon="-6.225859"></trkpt>
      <trkpt lat="53.480416" lon="-6.225476"></trkpt>
      <trkpt lat="53.479562" lon="-6.225102"></trkpt>
      <trkpt lat="53.478829" lon="-6.224782"></trkpt>
      <trkpt lat="53.478317" lon="-6.224558"></trkpt>
      <trkpt lat="53.478124" lon="-6.224474"></trkpt>
      <trkpt lat="53.477673" lon="-6.224322"></trkpt>
      <trkpt lat="53.476792" lon="-6.223790"></trkpt>
      <trkpt lat="53.475820" lon="-6.223753"></trkpt>
      <trkpt lat="53.475779" lon="-6.223734"></trkpt>
      <trkpt lat="53.475666" lon="-6.223682"></trkpt>
      <trkpt lat="53.475502" lon="-6.223602"></trkpt>
      <trkpt lat="53.475303" lon="-6.223501"></trkpt>
      <trkpt lat="53.475089" lon="-6.223384"></trkpt>
      <trkpt lat="53.474876" lon="-6.223256"></trkpt>
      <trkpt lat="53.474685" lon="-6.223124"></trkpt>
      <trkpt lat="53.474532" lon="-6.222994"></trkpt>
      <trkpt lat="53.474373" lon="-6.222871"></trkpt>
      <trkpt lat="53.474268" lon="-6.222797"></trkpt>
      <trkpt lat="53.474140" lon="-6.222734"></trkpt>
      <trkpt lat="53.473995" lon="-6.222683"></trkpt>
      <trkpt lat="53.473839" lon="-6.222646"></trkpt>
      <trkpt lat="53.473680" lon="-6.222626"></trkpt>
      <trkpt lat="53.473523" lon="-6.222625"></trkpt>
      <trkpt lat="53.473374" lon="-6.222645"></trkpt>
      <trkpt lat="53.473240" lon="-6.222689"></trkpt>
      <trkpt lat="53.473040" lon="-6.222767"></trkpt>
      <trkpt lat="53.472871" lon="-6.222814"></trkpt>
      <trkpt lat="53.472726" lon="-6.222833"></trkpt>
      <trkpt lat="53.472603" lon="-6.222828"></trkpt>
      <trkpt lat="53.472495" lon="-6.222804"></trkpt>
      <trkpt lat="53.472400" lon="-6.222766"></trkpt>
      <trkpt lat="53.472311" lon="-6.222717"></trkpt>
      <trkpt lat="53.472226" lon="-6.222662"></trkpt>
      <trkpt lat="53.472056" lon="-6.222514"></trkpt>
      <trkpt lat="53.471902" lon="-6.222322"></trkpt>
      <trkpt lat="53.471751" lon="-6.222102"></trkpt>
      <trkpt lat="53.471594" lon="-6.221870"></trkpt>
      <trkpt lat="53.471418" lon="-6.221642"></trkpt>
      <trkpt lat="53.471214" lon="-6.221434"></trkpt>
      <trkpt lat="53.470969" lon="-6.221263"></trkpt>
      <trkpt lat="53.470672" lon="-6.221145"></trkpt>
      <trkpt lat="53.470540" lon="-6.221112"></trkpt>
      <trkpt lat="53.470338" lon="-6.221063"></trkpt>
      <trkpt lat="53.470081" lon="-6.221002"></trkpt>
      <trkpt lat="53.469784" lon="-6.220933"></trkpt>
      <trkpt lat="53.469463" lon="-6.220860"></trkpt>
      <trkpt lat="53.469133" lon="-6.220786"></trkpt>
      <trkpt lat="53.468810" lon="-6.220716"></trkpt>
      <trkpt lat="53.468509" lon="-6.220653"></trkpt>
      <trkpt lat="53.468463" lon="-6.220640"></trkpt>
      <trkpt lat="53.468420" lon="-6.220620"></trkpt>
      <trkpt lat="53.468380" lon="-6.220595"></trkpt>
      <trkpt lat="53.468343" lon="-6.220566"></trkpt>
      <trkpt lat="53.468308" lon="-6.220534"></trkpt>
      <trkpt lat="53.468276" lon="-6.220500"></trkpt>
      <trkpt lat="53.468245" lon="-6.220467"></trkpt>
      <trkpt lat="53.468216" lon="-6.220435"></trkpt>
      <trkpt lat="53.468170" lon="-6.220388"></trkpt>
      <trkpt lat="53.468123" lon="-6.220345"></trkpt>
      <trkpt lat="53.468075" lon="-6.220307"></trkpt>
      <trkpt lat="53.468026" lon="-6.220274"></trkpt>
      <trkpt lat="53.467976" lon="-6.220247"></trkpt>
      <trkpt lat="53.467924" lon="-6.220226"></trkpt>
      <trkpt lat="53.467872" lon="-6.220212"></trkpt>
      <trkpt lat="53.467819" lon="-6.220205"></trkpt>
      <trkpt lat="53.467678" lon="-6.220193"></trkpt>
      <trkpt lat="53.467396" lon="-6.220170"></trkpt>
      <trkpt lat="53.467020" lon="-6.220139"></trkpt>
      <trkpt lat="53.466598" lon="-6.220105"></trkpt>
      <trkpt lat="53.466176" lon="-6.220070"></trkpt>
      <trkpt lat="53.465803" lon="-6.220040"></trkpt>
      <trkpt lat="53.465527" lon="-6.220018"></trkpt>
      <trkpt lat="53.465394" lon="-6.220009"></trkpt>
      <trkpt lat="53.465364" lon="-6.220006"></trkpt>
      <trkpt lat="53.465339" lon="-6.219999"></trkpt>
      <trkpt lat="53.465317" lon="-6.219987"></trkpt>
      <trkpt lat="53.465299" lon="-6.219969"></trkpt>
      <trkpt lat="53.465285" lon="-6.219945"></trkpt>
      <trkpt lat="53.465276" lon="-6.219914"></trkpt>
      <trkpt lat="53.465270" lon="-6.219876"></trkpt>
      <trkpt lat="53.465268" lon="-6.219830"></trkpt>
      <trkpt lat="53.465269" lon="-6.219746"></trkpt>
      <trkpt lat="53.465269" lon="-6.219649"></trkpt>
      <trkpt lat="53.465269" lon="-6.219546"></trkpt>
      <trkpt lat="53.465270" lon="-6.219445"></trkpt>
      <trkpt lat="53.465270" lon="-6.219354"></trkpt>
      <trkpt lat="53.465270" lon="-6.219280"></trkpt>
      <trkpt lat="53.465270" lon="-6.219229"></trkpt>
      <trkpt lat="53.465270" lon="-6.219211"></trkpt>
    </trkseg>
  </trk>
</gpx>